start=new Date('2022-05-07T00:00:00.000Z').valueOf();
sats=[{"TLE_LINE2":"2 46372  53.0541 195.9281 0001766  51.8758 308.2390 15.06400046 92991","EPOCH":"2022-05-06T11:09:44.044704","ELEMENT_SET_NO":"999","SITE":"AFETR","REF_FRAME":"TEME","FILE":"3431685","OBJECT_TYPE":"PAYLOAD","MEAN_ANOMALY":"308.2390","MEAN_MOTION":"15.06400046","CENTER_NAME":"EARTH","SEMIMAJOR_AXIS":"6925.348","ECCENTRICITY":"0.00017660","GP_ID":"202826812","PERIOD":"95.592","EPHEMERIS_TYPE":"0","INCLINATION":"53.0541","BSTAR":"0.00005922100000","LAUNCH_DATE":"2020-09-03","RA_OF_ASC_NODE":"195.9281","CLASSIFICATION_TYPE":"U","RCS_SIZE":"LARGE","OBJECT_NAME":"STARLINK-1689","ARG_OF_PERICENTER":"51.8758","PERIAPSIS":"545.990","APOAPSIS":"548.436","TIME_SYSTEM":"UTC","MEAN_ELEMENT_THEORY":"SGP4","TLE_LINE1":"1 46372U 20062AZ  22126.46509311  .00000601  00000-0  59221-4 0  9994","OBJECT_ID":"2020-062AZ","MEAN_MOTION_DDOT":"0.0000000000000","MEAN_MOTION_DOT":"0.00000601","NORAD_CAT_ID":"46372","REV_AT_EPOCH":"9299","DECAY_DATE":null,"COUNTRY_CODE":"US"},{"OBJECT_NAME":"STARLINK-1711","CLASSIFICATION_TYPE":"U","RCS_SIZE":"LARGE","LAUNCH_DATE":"2020-09-03","RA_OF_ASC_NODE":"125.8880","BSTAR":"0.00001828400000","INCLINATION":"53.0545","PERIOD":"95.592","EPHEMERIS_TYPE":"0","DECAY_DATE":null,"COUNTRY_CODE":"US","REV_AT_EPOCH":"9379","TLE_LINE1":"1 46374U 20062BB  22126.47891279 -.00000009  00000-0  18284-4 0  9991","MEAN_MOTION_DOT":"-0.00000009","MEAN_MOTION_DDOT":"0.0000000000000","NORAD_CAT_ID":"46374","OBJECT_ID":"2020-062BB","APOAPSIS":"548.244","TIME_SYSTEM":"UTC","MEAN_ELEMENT_THEORY":"SGP4","PERIAPSIS":"546.159","ARG_OF_PERICENTER":"65.3404","FILE":"3432208","REF_FRAME":"TEME","TLE_LINE2":"2 46374  53.0545 125.8880 0001505  65.3404 294.7741 15.06403894 93795","EPOCH":"2022-05-06T11:29:38.065056","SITE":"AFETR","ELEMENT_SET_NO":"999","ECCENTRICITY":"0.00015050","GP_ID":"202859606","SEMIMAJOR_AXIS":"6925.337","MEAN_MOTION":"15.06403894","CENTER_NAME":"EARTH","MEAN_ANOMALY":"294.7741","OBJECT_TYPE":"PAYLOAD"},{"ECCENTRICITY":"0.00022240","GP_ID":"202859854","SEMIMAJOR_AXIS":"6925.374","MEAN_MOTION":"15.06391772","CENTER_NAME":"EARTH","MEAN_ANOMALY":"324.4343","OBJECT_TYPE":"PAYLOAD","FILE":"3432208","REF_FRAME":"TEME","EPOCH":"2022-05-06T11:50:13.515936","TLE_LINE2":"2 46375  53.0530 150.8003 0002224  35.6794 324.4343 15.06391772 93448","ELEMENT_SET_NO":"999","SITE":"AFETR","DECAY_DATE":null,"COUNTRY_CODE":"US","REV_AT_EPOCH":"9344","TLE_LINE1":"1 46375U 20062BC  22126.49321199 -.00001188  00000-0 -60840-4 0  9998","MEAN_MOTION_DOT":"-0.00001188","MEAN_MOTION_DDOT":"0.0000000000000","NORAD_CAT_ID":"46375","OBJECT_ID":"2020-062BC","APOAPSIS":"548.779","TIME_SYSTEM":"UTC","MEAN_ELEMENT_THEORY":"SGP4","PERIAPSIS":"545.699","ARG_OF_PERICENTER":"35.6794","OBJECT_NAME":"STARLINK-1724","RCS_SIZE":"LARGE","CLASSIFICATION_TYPE":"U","LAUNCH_DATE":"2020-09-03","RA_OF_ASC_NODE":"150.8003","BSTAR":"-0.00006084000000","INCLINATION":"53.0530","PERIOD":"95.593","EPHEMERIS_TYPE":"0"},{"MEAN_MOTION":"15.06401848","CENTER_NAME":"EARTH","SEMIMAJOR_AXIS":"6925.343","ECCENTRICITY":"0.00019960","GP_ID":"202859579","OBJECT_TYPE":"PAYLOAD","MEAN_ANOMALY":"309.0062","FILE":"3432208","TLE_LINE2":"2 46376  53.0543 150.7512 0001996  51.1104 309.0062 15.06401848 93443","EPOCH":"2022-05-06T12:11:26.839392","ELEMENT_SET_NO":"999","SITE":"AFETR","REF_FRAME":"TEME","REV_AT_EPOCH":"9344","DECAY_DATE":null,"COUNTRY_CODE":"US","ARG_OF_PERICENTER":"51.1104","PERIAPSIS":"545.826","TIME_SYSTEM":"UTC","APOAPSIS":"548.590","MEAN_ELEMENT_THEORY":"SGP4","TLE_LINE1":"1 46376U 20062BD  22126.50794953 -.00001071  00000-0 -52977-4 0  9996","MEAN_MOTION_DOT":"-0.00001071","MEAN_MOTION_DDOT":"0.0000000000000","NORAD_CAT_ID":"46376","OBJECT_ID":"2020-062BD","BSTAR":"-0.00005297700000","LAUNCH_DATE":"2020-09-03","RA_OF_ASC_NODE":"150.7512","RCS_SIZE":"LARGE","CLASSIFICATION_TYPE":"U","OBJECT_NAME":"STARLINK-1742","PERIOD":"95.592","EPHEMERIS_TYPE":"0","INCLINATION":"53.0543"},{"FILE":"3432208","REF_FRAME":"TEME","TLE_LINE2":"2 46380  53.0550 175.6022 0001731  48.8421 311.2717 15.06389770 93104","EPOCH":"2022-05-06T12:58:33.884544","SITE":"AFETR","ELEMENT_SET_NO":"999","ECCENTRICITY":"0.00017310","GP_ID":"202858853","SEMIMAJOR_AXIS":"6925.380","MEAN_MOTION":"15.06389770","CENTER_NAME":"EARTH","MEAN_ANOMALY":"311.2717","OBJECT_TYPE":"PAYLOAD","OBJECT_NAME":"STARLINK-1758","CLASSIFICATION_TYPE":"U","RCS_SIZE":"LARGE","LAUNCH_DATE":"2020-09-03","RA_OF_ASC_NODE":"175.6022","BSTAR":"-0.00016905000000","INCLINATION":"53.0550","PERIOD":"95.593","EPHEMERIS_TYPE":"0","DECAY_DATE":null,"COUNTRY_CODE":"US","REV_AT_EPOCH":"9310","TLE_LINE1":"1 46380U 20062BH  22126.54066996 -.00002798  00000-0 -16905-3 0  9991","OBJECT_ID":"2020-062BH","MEAN_MOTION_DDOT":"0.0000000000000","MEAN_MOTION_DOT":"-0.00002798","NORAD_CAT_ID":"46380","APOAPSIS":"548.444","TIME_SYSTEM":"UTC","MEAN_ELEMENT_THEORY":"SGP4","PERIAPSIS":"546.046","ARG_OF_PERICENTER":"48.8421"},{"RCS_SIZE":"LARGE","CLASSIFICATION_TYPE":"U","OBJECT_NAME":"STARLINK-1769","BSTAR":"-0.00010227000000","LAUNCH_DATE":"2020-09-03","RA_OF_ASC_NODE":"149.5002","PERIOD":"95.592","EPHEMERIS_TYPE":"0","INCLINATION":"53.0540","DECAY_DATE":null,"COUNTRY_CODE":"US","REV_AT_EPOCH":"9364","TIME_SYSTEM":"UTC","APOAPSIS":"548.564","MEAN_ELEMENT_THEORY":"SGP4","TLE_LINE1":"1 46382U 20062BK  22126.78808485 -.00001805  00000-0 -10227-3 0  9995","MEAN_MOTION_DOT":"-0.00001805","MEAN_MOTION_DDOT":"0.0000000000000","OBJECT_ID":"2020-062BK","NORAD_CAT_ID":"46382","ARG_OF_PERICENTER":"43.3802","PERIAPSIS":"545.868","FILE":"3432373","TLE_LINE2":"2 46382  53.0540 149.5002 0001946  43.3802 316.7340 15.06399192 93644","EPOCH":"2022-05-06T18:54:50.531040","SITE":"AFETR","ELEMENT_SET_NO":"999","REF_FRAME":"TEME","SEMIMAJOR_AXIS":"6925.351","ECCENTRICITY":"0.00019460","GP_ID":"202867568","MEAN_MOTION":"15.06399192","CENTER_NAME":"EARTH","MEAN_ANOMALY":"316.7340","OBJECT_TYPE":"PAYLOAD"},{"OBJECT_NAME":"STARLINK-1770","CLASSIFICATION_TYPE":"U","RCS_SIZE":"LARGE","RA_OF_ASC_NODE":"195.7477","LAUNCH_DATE":"2020-09-03","BSTAR":"-0.00003260100000","INCLINATION":"53.0549","EPHEMERIS_TYPE":"0","PERIOD":"95.592","COUNTRY_CODE":"US","DECAY_DATE":null,"REV_AT_EPOCH":"9281","OBJECT_ID":"2020-062BL","MEAN_MOTION_DDOT":"0.0000000000000","MEAN_MOTION_DOT":"-0.00000767","NORAD_CAT_ID":"46383","TLE_LINE1":"1 46383U 20062BL  22126.50932505 -.00000767  00000-0 -32601-4 0  9994","MEAN_ELEMENT_THEORY":"SGP4","TIME_SYSTEM":"UTC","APOAPSIS":"548.356","PERIAPSIS":"546.030","ARG_OF_PERICENTER":"59.4424","FILE":"3432208","REF_FRAME":"TEME","ELEMENT_SET_NO":"999","SITE":"AFETR","EPOCH":"2022-05-06T12:13:25.684320","TLE_LINE2":"2 46383  53.0549 195.7477 0001679  59.4424 300.6730 15.06406699 92818","GP_ID":"202859354","ECCENTRICITY":"0.00016790","SEMIMAJOR_AXIS":"6925.328","CENTER_NAME":"EARTH","MEAN_MOTION":"15.06406699","MEAN_ANOMALY":"300.6730","OBJECT_TYPE":"PAYLOAD"},{"ECCENTRICITY":"0.00014610","GP_ID":"202860080","SEMIMAJOR_AXIS":"6925.357","MEAN_MOTION":"15.06397325","CENTER_NAME":"EARTH","MEAN_ANOMALY":"283.6234","OBJECT_TYPE":"PAYLOAD","FILE":"3432208","REF_FRAME":"TEME","EPOCH":"2022-05-06T10:43:12.034848","TLE_LINE2":"2 46384  53.0566 196.0303 0001461  76.4918 283.6234 15.06397325 92809","SITE":"AFETR","ELEMENT_SET_NO":"999","DECAY_DATE":null,"COUNTRY_CODE":"US","REV_AT_EPOCH":"9280","TLE_LINE1":"1 46384U 20062BM  22126.44666707 -.00000196  00000-0  57720-5 0  9991","MEAN_MOTION_DDOT":"0.0000000000000","NORAD_CAT_ID":"46384","MEAN_MOTION_DOT":"-0.00000196","OBJECT_ID":"2020-062BM","TIME_SYSTEM":"UTC","APOAPSIS":"548.234","MEAN_ELEMENT_THEORY":"SGP4","PERIAPSIS":"546.210","ARG_OF_PERICENTER":"76.4918","OBJECT_NAME":"STARLINK-1771","CLASSIFICATION_TYPE":"U","RCS_SIZE":"LARGE","LAUNCH_DATE":"2020-09-03","RA_OF_ASC_NODE":"196.0303","BSTAR":"0.00000577200000","INCLINATION":"53.0566","PERIOD":"95.592","EPHEMERIS_TYPE":"0"},{"OBJECT_NAME":"STARLINK-1644","CLASSIFICATION_TYPE":"U","RCS_SIZE":"LARGE","RA_OF_ASC_NODE":"354.2301","LAUNCH_DATE":"2020-10-06","BSTAR":"0.00015506000000","INCLINATION":"53.0558","EPHEMERIS_TYPE":"0","PERIOD":"95.592","COUNTRY_CODE":"US","DECAY_DATE":null,"REV_AT_EPOCH":"8808","MEAN_MOTION_DDOT":"0.0000000000000","NORAD_CAT_ID":"46532","MEAN_MOTION_DOT":"0.00002029","OBJECT_ID":"2020-070A","TLE_LINE1":"1 46532U 20070A   22126.84474158  .00002029  00000-0  15506-3 0  9996","MEAN_ELEMENT_THEORY":"SGP4","APOAPSIS":"548.147","TIME_SYSTEM":"UTC","PERIAPSIS":"546.236","ARG_OF_PERICENTER":"90.6405","FILE":"3432584","REF_FRAME":"TEME","ELEMENT_SET_NO":"999","SITE":"AFETR","TLE_LINE2":"2 46532  53.0558 354.2301 0001380  90.6405 269.4742 15.06407176 88087","EPOCH":"2022-05-06T20:16:25.672512","GP_ID":"202873282","ECCENTRICITY":"0.00013800","SEMIMAJOR_AXIS":"6925.327","CENTER_NAME":"EARTH","MEAN_MOTION":"15.06407176","MEAN_ANOMALY":"269.4742","OBJECT_TYPE":"PAYLOAD"},{"CENTER_NAME":"EARTH","MEAN_MOTION":"15.06401652","GP_ID":"202860872","ECCENTRICITY":"0.00016110","SEMIMAJOR_AXIS":"6925.343","OBJECT_TYPE":"PAYLOAD","MEAN_ANOMALY":"287.4278","FILE":"3432208","REF_FRAME":"TEME","ELEMENT_SET_NO":"999","SITE":"AFETR","EPOCH":"2022-05-06T01:25:52.631616","TLE_LINE2":"2 46533  53.0555 357.7472 0001611  72.6888 287.4278 15.06401652 87945","REV_AT_EPOCH":"8794","COUNTRY_CODE":"US","DECAY_DATE":null,"PERIAPSIS":"546.093","ARG_OF_PERICENTER":"72.6888","MEAN_MOTION_DOT":"0.00000165","MEAN_MOTION_DDOT":"0.0000000000000","NORAD_CAT_ID":"46533","OBJECT_ID":"2020-070B","TLE_LINE1":"1 46533U 20070B   22126.05963694  .00000165  00000-0  29997-4 0  9997","MEAN_ELEMENT_THEORY":"SGP4","TIME_SYSTEM":"UTC","APOAPSIS":"548.324","RA_OF_ASC_NODE":"357.7472","LAUNCH_DATE":"2020-10-06","BSTAR":"0.00002999700000","OBJECT_NAME":"STARLINK-1648","RCS_SIZE":"LARGE","CLASSIFICATION_TYPE":"U","INCLINATION":"53.0555","EPHEMERIS_TYPE":"0","PERIOD":"95.592"}];
